{"type": "FeatureCollection", "features": [ {"type": "Feature", "properties": {"norad_id": 67161, "name": "GALILEO B", "group": "last-30-days", "lat": 25.793113511237156, "lon": -93.34501247025507, "alt_km": 22937.375175259585, "timestamp": "2025-12-25T07:41:08.453449+00:00", "meta": {"OBJECT_NAME": "GALILEO B", "OBJECT_ID": "2025-302B", "EPOCH": "2025-12-19T07:14:53.290752", "MEAN_MOTION": 1.72972192, "ECCENTRICITY": 0.00045866, "INCLINATION": 54.2272, "RA_OF_ASC_NODE": 107.1916, "ARG_OF_PERICENTER": 255.0301, "MEAN_ANOMALY": 104.8802, "EPHEMERIS_TYPE": 0, "CLASSIFICATION_TYPE": "U", "NORAD_CAT_ID": 67161, "ELEMENT_SET_NO": 999, "REV_AT_EPOCH": 5, "BSTAR": 0, "MEAN_MOTION_DOT": -5e-08, "MEAN_MOTION_DDOT": 0}, "tle": {"line1": "1 67161U 25302B   25353.30200568 -.00000005  00000+0  00000+0 0  9999", "line2": "2 67161  54.2272 107.1916 0004586 255.0301 104.8802  1.72972192    57"}}, "geometry": {"type": "Point", "coordinates": [-93.34501247025507, 25.793113511237156]}}, {"type": "Feature", "properties": {"norad_id": 67162, "name": "ARIANE 6 R/B", "group": "last-30-days", "lat": 22.298737772385387, "lon": -90.11658669038518, "alt_km": 22915.199346097088, "timestamp": "2025-12-25T07:41:08.453460+00:00", "meta": {"OBJECT_NAME": "ARIANE 6 R/B", "OBJECT_ID": "2025-302C", "EPOCH": "2025-12-19T07:12:31.071168", "MEAN_MOTION": 1.73130298, "ECCENTRICITY": 2.559e-05, "INCLINATION": 54.2437, "RA_OF_ASC_NODE": 107.222, "ARG_OF_PERICENTER": 160.7324, "MEAN_ANOMALY": 199.2296, "EPHEMERIS_TYPE": 0, "CLASSIFICATION_TYPE": "U", "NORAD_CAT_ID": 67162, "ELEMENT_SET_NO": 999, "REV_AT_EPOCH": 8, "BSTAR": 0, "MEAN_MOTION_DOT": -5e-08, "MEAN_MOTION_DDOT": 0}, "tle": {"line1": "1 67162U 25302C   25353.30035962 -.00000005  00000+0  00000+0 0  9994", "line2": "2 67162  54.2437 107.2220 0000255 160.7324 199.2296  1.73130298    88"}}, "geometry": {"type": "Point", "coordinates": [-90.11658669038518, 22.298737772385387]}}, {"type": "Feature", "properties": {"norad_id": 67219, "name": "DISKSAT A", "group": "last-30-days", "lat": 12.168320666484114, "lon": 91.52300922505432, "alt_km": 549.5345824459037, "timestamp": "2025-12-25T07:41:08.453472+00:00", "meta": {"OBJECT_NAME": "DISKSAT A", "OBJECT_ID": "2025-305A", "EPOCH": "2025-12-20T09:08:30.149664", "MEAN_MOTION": 15.05762698, "ECCENTRICITY": 0.0003912, "INCLINATION": 45.0057, "RA_OF_ASC_NODE": 310.0654, "ARG_OF_PERICENTER": 276.1097, "MEAN_ANOMALY": 83.9332, "EPHEMERIS_TYPE": 0, "CLASSIFICATION_TYPE": "U", "NORAD_CAT_ID": 67219, "ELEMENT_SET_NO": 999, "REV_AT_EPOCH": 33, "BSTAR": 5.0887e-05, "MEAN_MOTION_DOT": 5.1e-06, "MEAN_MOTION_DDOT": 0}, "tle": {"line1": "1 67219U 25305A   25354.38090451  .00000510  00000+0  50887-4 0  9996", "line2": "2 67219  45.0057 310.0654 0003912 276.1097  83.9332 15.05762698   337"}}, "geometry": {"type": "Point", "coordinates": [91.52300922505432, 12.168320666484114]}}, {"type": "Feature", "properties": {"norad_id": 67220, "name": "DISKSAT B", "group": "last-30-days", "lat": 13.195978452762883, "lon": 90.42517965134122, "alt_km": 549.8539645220371, "timestamp": "2025-12-25T07:41:08.453486+00:00", "meta": {"OBJECT_NAME": "DISKSAT B", "OBJECT_ID": "2025-305B", "EPOCH": "2025-12-20T05:57:31.803264", "MEAN_MOTION": 15.05702195, "ECCENTRICITY": 0.0004681, "INCLINATION": 45.0108, "RA_OF_ASC_NODE": 310.7693, "ARG_OF_PERICENTER": 270.4757, "MEAN_ANOMALY": 89.5581, "EPHEMERIS_TYPE": 0, "CLASSIFICATION_TYPE": "U", "NORAD_CAT_ID": 67220, "ELEMENT_SET_NO": 999, "REV_AT_EPOCH": 31, "BSTAR": 5.1086e-05, "MEAN_MOTION_DOT": 5.11e-06, "MEAN_MOTION_DDOT": 0}, "tle": {"line1": "1 67220U 25305B   25354.24828476  .00000511  00000+0  51086-4 0  9992", "line2": "2 67220  45.0108 310.7693 0004681 270.4757  89.5581 15.05702195   312"}}, "geometry": {"type": "Point", "coordinates": [90.42517965134122, 13.195978452762883]}}, {"type": "Feature", "properties": {"norad_id": 67221, "name": "DISKSAT C", "group": "last-30-days", "lat": 14.047432022523582, "lon": 89.48924702332178, "alt_km": 550.1056257700093, "timestamp": "2025-12-25T07:41:08.453496+00:00", "meta": {"OBJECT_NAME": "DISKSAT C", "OBJECT_ID": "2025-305C", "EPOCH": "2025-12-20T07:33:11.308608", "MEAN_MOTION": 15.0565367, "ECCENTRICITY": 0.00043877, "INCLINATION": 45.0067, "RA_OF_ASC_NODE": 310.4143, "ARG_OF_PERICENTER": 282.7791, "MEAN_ANOMALY": 77.2594, "EPHEMERIS_TYPE": 0, "CLASSIFICATION_TYPE": "U", "NORAD_CAT_ID": 67221, "ELEMENT_SET_NO": 999, "REV_AT_EPOCH": 31, "BSTAR": 0.00010190761, "MEAN_MOTION_DOT": 1.256e-05, "MEAN_MOTION_DDOT": 0}, "tle": {"line1": "1 67221U 25305C   25354.31471422  .00001256  00000+0  10191-3 0  9994", "line2": "2 67221  45.0067 310.4143 0004387 282.7791  77.2594 15.05653670   312"}}, "geometry": {"type": "Point", "coordinates": [89.48924702332178, 14.047432022523582]}}, {"type": "Feature", "properties": {"norad_id": 67222, "name": "DISKSAT D", "group": "last-30-days", "lat": 15.552590508583593, "lon": 87.82239634963156, "alt_km": 550.3592035451229, "timestamp": "2025-12-25T07:41:08.453506+00:00", "meta": {"OBJECT_NAME": "DISKSAT D", "OBJECT_ID": "2025-305D", "EPOCH": "2025-12-20T07:33:21.625632", "MEAN_MOTION": 15.05567005, "ECCENTRICITY": 0.00044772, "INCLINATION": 45.0056, "RA_OF_ASC_NODE": 310.415, "ARG_OF_PERICENTER": 287.6101, "MEAN_ANOMALY": 72.4284, "EPHEMERIS_TYPE": 0, "CLASSIFICATION_TYPE": "U", "NORAD_CAT_ID": 67222, "ELEMENT_SET_NO": 999, "REV_AT_EPOCH": 31, "BSTAR": 0.00010184381, "MEAN_MOTION_DOT": 1.252e-05, "MEAN_MOTION_DDOT": 0}, "tle": {"line1": "1 67222U 25305D   25354.31483363  .00001252  00000+0  10184-3 0  9990", "line2": "2 67222  45.0056 310.4150 0004477 287.6101  72.4284 15.05567005   317"}}, "geometry": {"type": "Point", "coordinates": [87.82239634963156, 15.552590508583593]}}, {"type": "Feature", "properties": {"norad_id": 67223, "name": "ELECTRON KICK STAGE R/B", "group": "last-30-days", "lat": 9.786868695151309, "lon": 91.52930876681829, "alt_km": 301.7338138606856, "timestamp": "2025-12-25T07:41:08.453516+00:00", "meta": {"OBJECT_NAME": "ELECTRON KICK STAGE R/B", "OBJECT_ID": "2025-305E", "EPOCH": "2025-12-23T06:58:48.011808", "MEAN_MOTION": 15.48545747, "ECCENTRICITY": 0.017749, "INCLINATION": 44.9877, "RA_OF_ASC_NODE": 292.9264, "ARG_OF_PERICENTER": 166.6089, "MEAN_ANOMALY": 193.9601, "EPHEMERIS_TYPE": 0, "CLASSIFICATION_TYPE": "U", "NORAD_CAT_ID": 67223, "ELEMENT_SET_NO": 999, "REV_AT_EPOCH": 79, "BSTAR": 0.00018366, "MEAN_MOTION_DOT": 0.00018707, "MEAN_MOTION_DDOT": 0}, "tle": {"line1": "1 67223U 25305E   25357.29083347  .00018707  00000+0  18366-3 0  9992", "line2": "2 67223  44.9877 292.9264 0177490 166.6089 193.9601 15.48545747   794"}}, "geometry": {"type": "Point", "coordinates": [91.52930876681829, 9.786868695151309]}}, {"type": "Feature", "properties": {"norad_id": 67224, "name": "ELECTRON R/B", "group": "last-30-days", "lat": -39.42824724227293, "lon": 155.67002402318428, "alt_km": 326.29841885134283, "timestamp": "2025-12-25T07:41:08.453528+00:00", "meta": {"OBJECT_NAME": "ELECTRON R/B", "OBJECT_ID": "2025-305F", "EPOCH": "2025-12-18T18:27:13.126752", "MEAN_MOTION": 15.64663678, "ECCENTRICITY": 0.0262888, "INCLINATION": 45.0188, "RA_OF_ASC_NODE": 318.3021, "ARG_OF_PERICENTER": 280.1207, "MEAN_ANOMALY": 77.0133, "EPHEMERIS_TYPE": 0, "CLASSIFICATION_TYPE": "U", "NORAD_CAT_ID": 67224, "ELEMENT_SET_NO": 999, "REV_AT_EPOCH": 9, "BSTAR": 0.00022935, "MEAN_MOTION_DOT": 0.00172783, "MEAN_MOTION_DDOT": 8.6369e-06}, "tle": {"line1": "1 67224U 25305F   25352.76890193  .00172783  86369-5  22935-3 0  9995", "line2": "2 67224  45.0188 318.3021 0262888 280.1207  77.0133 15.64663678    93"}}, "geometry": {"type": "Point", "coordinates": [155.67002402318428, -39.42824724227293]}}, {"type": "Feature", "properties": {"norad_id": 67226, "name": "TJS-23", "group": "last-30-days", "lat": -4.9898155818011825, "lon": -79.48477089108671, "alt_km": 36850.39327587591, "timestamp": "2025-12-25T07:41:08.453540+00:00", "meta": {"OBJECT_NAME": "TJS-23", "OBJECT_ID": "2025-306A", "EPOCH": "2025-12-21T08:24:49.367232", "MEAN_MOTION": 1.72705756, "ECCENTRICITY": 0.77540409, "INCLINATION": 16.401, "RA_OF_ASC_NODE": 298.8861, "ARG_OF_PERICENTER": 179.8382, "MEAN_ANOMALY": 143.9016, "EPHEMERIS_TYPE": 0, "CLASSIFICATION_TYPE": "U", "NORAD_CAT_ID": 67226, "ELEMENT_SET_NO": 999, "REV_AT_EPOCH": 2, "BSTAR": 0.00071636348, "MEAN_MOTION_DOT": 3.331e-05, "MEAN_MOTION_DDOT": 0}, "tle": {"line1": "1 67226U 25306A   25355.35057138  .00003331  00000+0  71636-3 0  9996", "line2": "2 67226  16.4010 298.8861 7754040 179.8382 143.9016  1.72705756    20"}}, "geometry": {"type": "Point", "coordinates": [-79.48477089108671, -4.9898155818011825]}}, {"type": "Feature", "properties": {"norad_id": 67227, "name": "CZ-5 R/B", "group": "last-30-days", "lat": -7.666333621012351, "lon": -89.66046990037796, "alt_km": 27547.624612875316, "timestamp": "2025-12-25T07:41:08.453553+00:00", "meta": {"OBJECT_NAME": "CZ-5 R/B", "OBJECT_ID": "2025-306B", "EPOCH": "2025-12-20T19:22:03.368352", "MEAN_MOTION": 1.92163474, "ECCENTRICITY": 0.75788222, "INCLINATION": 16.4229, "RA_OF_ASC_NODE": 298.9498, "ARG_OF_PERICENTER": 179.0262, "MEAN_ANOMALY": 184.9269, "EPHEMERIS_TYPE": 0, "CLASSIFICATION_TYPE": "U", "NORAD_CAT_ID": 67227, "ELEMENT_SET_NO": 999, "REV_AT_EPOCH": 2, "BSTAR": 0.00048545663, "MEAN_MOTION_DOT": 1.201e-05, "MEAN_MOTION_DDOT": 0}, "tle": {"line1": "1 67227U 25306B   25354.80698343  .00001201  00000+0  48546-3 0  9993", "line2": "2 67227  16.4229 298.9498 7578822 179.0262 184.9269  1.92163474    23"}}, "geometry": {"type": "Point", "coordinates": [-89.66046990037796, -7.666333621012351]}}]}